{"type": "FeatureCollection", "features": [ {"type": "Feature", "properties": {"norad_id": 28649, "name": "IRS-P5 (CARTOSAT-1)", "group": "resource", "lat": 2.6855031074664244, "lon": 21.2749601397515, "alt_km": 598.9309850786867, "timestamp": "2025-12-21T14:40:47.567194+00:00", "meta": {"OBJECT_NAME": "IRS-P5 (CARTOSAT-1)", "OBJECT_ID": "2005-017A", "EPOCH": "2025-12-21T01:46:39.296352", "MEAN_MOTION": 14.90430022, "ECCENTRICITY": 7.415e-05, "INCLINATION": 97.5484, "RA_OF_ASC_NODE": 21.1176, "ARG_OF_PERICENTER": 52.3695, "MEAN_ANOMALY": 307.7591, "EPHEMERIS_TYPE": 0, "CLASSIFICATION_TYPE": "U", "NORAD_CAT_ID": 28649, "ELEMENT_SET_NO": 999, "REV_AT_EPOCH": 11728, "BSTAR": 0.00011252547, "MEAN_MOTION_DOT": 1.044e-05, "MEAN_MOTION_DDOT": 0}, "tle": {"line1": "1 28649U 05017A   25355.07406593  .00001044  00000+0  11253-3 0  9999", "line2": "2 28649  97.5484  21.1176 0000741  52.3695 307.7591 14.90430022117284"}}, "geometry": {"type": "Point", "coordinates": [21.2749601397515, 2.6855031074664244]}}, {"type": "Feature", "properties": {"norad_id": 28893, "name": "SINAH 1", "group": "resource", "lat": -52.5171862473717, "lon": -66.72815625248228, "alt_km": 693.2351611725817, "timestamp": "2025-12-21T14:40:47.567204+00:00", "meta": {"OBJECT_NAME": "SINAH 1", "OBJECT_ID": "2005-043D", "EPOCH": "2025-12-21T05:25:02.616672", "MEAN_MOTION": 14.6397082, "ECCENTRICITY": 0.00156566, "INCLINATION": 98.2608, "RA_OF_ASC_NODE": 123.8058, "ARG_OF_PERICENTER": 112.1743, "MEAN_ANOMALY": 248.1122, "EPHEMERIS_TYPE": 0, "CLASSIFICATION_TYPE": "U", "NORAD_CAT_ID": 28893, "ELEMENT_SET_NO": 999, "REV_AT_EPOCH": 7448, "BSTAR": 7.4755676e-05, "MEAN_MOTION_DOT": 3.43e-06, "MEAN_MOTION_DDOT": 0}, "tle": {"line1": "1 28893U 05043D   25355.22572473  .00000343  00000+0  74756-4 0  9996", "line2": "2 28893  98.2608 123.8058 0015656 112.1743 248.1122 14.63970820 74487"}}, "geometry": {"type": "Point", "coordinates": [-66.72815625248228, -52.5171862473717]}}, {"type": "Feature", "properties": {"norad_id": 29079, "name": "EROS B", "group": "resource", "lat": 12.330165890238034, "lon": 111.00974928561423, "alt_km": 356.48358028573875, "timestamp": "2025-12-21T14:40:47.567215+00:00", "meta": {"OBJECT_NAME": "EROS B", "OBJECT_ID": "2006-014A", "EPOCH": "2025-12-21T06:58:59.282688", "MEAN_MOTION": 15.70861123, "ECCENTRICITY": 0.00035761, "INCLINATION": 97.3463, "RA_OF_ASC_NODE": 112.2886, "ARG_OF_PERICENTER": 310.5862, "MEAN_ANOMALY": 49.5089, "EPHEMERIS_TYPE": 0, "CLASSIFICATION_TYPE": "U", "NORAD_CAT_ID": 29079, "ELEMENT_SET_NO": 999, "REV_AT_EPOCH": 9214, "BSTAR": 0.001240215, "MEAN_MOTION_DOT": 0.0015676, "MEAN_MOTION_DDOT": 0}, "tle": {"line1": "1 29079U 06014A   25355.29096392  .00156760  00000+0  12402-2 0  9993", "line2": "2 29079  97.3463 112.2886 0003576 310.5862  49.5089 15.70861123 92140"}}, "geometry": {"type": "Point", "coordinates": [111.00974928561423, 12.330165890238034]}}, {"type": "Feature", "properties": {"norad_id": 29228, "name": "RESURS-DK 1", "group": "resource", "lat": -69.91312400121234, "lon": -9.415667759022874, "alt_km": 531.6682491155952, "timestamp": "2025-12-21T14:40:47.567226+00:00", "meta": {"OBJECT_NAME": "RESURS-DK 1", "OBJECT_ID": "2006-021A", "EPOCH": "2025-12-21T07:08:12.576192", "MEAN_MOTION": 15.12204272, "ECCENTRICITY": 0.00068537, "INCLINATION": 69.9338, "RA_OF_ASC_NODE": 79.7224, "ARG_OF_PERICENTER": 251.5259, "MEAN_ANOMALY": 108.5163, "EPHEMERIS_TYPE": 0, "CLASSIFICATION_TYPE": "U", "NORAD_CAT_ID": 29228, "ELEMENT_SET_NO": 999, "REV_AT_EPOCH": 7567, "BSTAR": 0.00012111729, "MEAN_MOTION_DOT": 1.99e-05, "MEAN_MOTION_DDOT": 0}, "tle": {"line1": "1 29228U 06021A   25355.29736778  .00001990  00000+0  12112-3 0  9999", "line2": "2 29228  69.9338  79.7224 0006853 251.5259 108.5163 15.12204272 75670"}}, "geometry": {"type": "Point", "coordinates": [-9.415667759022874, -69.91312400121234]}}, {"type": "Feature", "properties": {"norad_id": 29268, "name": "ARIRANG-2 (KOMPSAT-2)", "group": "resource", "lat": 24.632933693899542, "lon": 7.266896423550555, "alt_km": 683.1699939964974, "timestamp": "2025-12-21T14:40:47.567237+00:00", "meta": {"OBJECT_NAME": "ARIRANG-2 (KOMPSAT-2)", "OBJECT_ID": "2006-031A", "EPOCH": "2025-12-21T06:33:48.150144", "MEAN_MOTION": 14.64500287, "ECCENTRICITY": 0.0013167, "INCLINATION": 97.8252, "RA_OF_ASC_NODE": 183.33, "ARG_OF_PERICENTER": 279.7804, "MEAN_ANOMALY": 253.4395, "EPHEMERIS_TYPE": 0, "CLASSIFICATION_TYPE": "U", "NORAD_CAT_ID": 29268, "ELEMENT_SET_NO": 999, "REV_AT_EPOCH": 3543, "BSTAR": 4.6599747e-05, "MEAN_MOTION_DOT": 2.02e-06, "MEAN_MOTION_DDOT": 0}, "tle": {"line1": "1 29268U 06031A   25355.27347396  .00000202  00000+0  46600-4 0  9991", "line2": "2 29268  97.8252 183.3300 0013167 279.7804 253.4395 14.64500287 35438"}}, "geometry": {"type": "Point", "coordinates": [7.266896423550555, 24.632933693899542]}}, {"type": "Feature", "properties": {"norad_id": 29709, "name": "LAPAN-TUBSAT", "group": "resource", "lat": 44.78298424569587, "lon": -22.200835754223466, "alt_km": 598.2914007471854, "timestamp": "2025-12-21T14:40:47.567247+00:00", "meta": {"OBJECT_NAME": "LAPAN-TUBSAT", "OBJECT_ID": "2007-001A", "EPOCH": "2025-12-21T06:23:41.529696", "MEAN_MOTION": 14.85683073, "ECCENTRICITY": 0.00133747, "INCLINATION": 98.1252, "RA_OF_ASC_NODE": 345.5982, "ARG_OF_PERICENTER": 49.0786, "MEAN_ANOMALY": 311.1584, "EPHEMERIS_TYPE": 0, "CLASSIFICATION_TYPE": "U", "NORAD_CAT_ID": 29709, "ELEMENT_SET_NO": 999, "REV_AT_EPOCH": 2473, "BSTAR": 0.00011414988, "MEAN_MOTION_DOT": 9.34e-06, "MEAN_MOTION_DDOT": 0}, "tle": {"line1": "1 29709U 07001A   25355.26645289  .00000934  00000+0  11415-3 0  9997", "line2": "2 29709  98.1252 345.5982 0013374  49.0786 311.1584 14.85683073 24738"}}, "geometry": {"type": "Point", "coordinates": [-22.200835754223466, 44.78298424569587]}}, {"type": "Feature", "properties": {"norad_id": 31113, "name": "HAIYANG-1B", "group": "resource", "lat": -14.20847853565267, "lon": -18.349957636817443, "alt_km": 784.2285355691556, "timestamp": "2025-12-21T14:40:47.567259+00:00", "meta": {"OBJECT_NAME": "HAIYANG-1B", "OBJECT_ID": "2007-010A", "EPOCH": "2025-12-20T20:17:13.259040", "MEAN_MOTION": 14.30967553, "ECCENTRICITY": 0.0013866, "INCLINATION": 98.3321, "RA_OF_ASC_NODE": 338.7888, "ARG_OF_PERICENTER": 14.9776, "MEAN_ANOMALY": 345.1816, "EPHEMERIS_TYPE": 0, "CLASSIFICATION_TYPE": "U", "NORAD_CAT_ID": 31113, "ELEMENT_SET_NO": 999, "REV_AT_EPOCH": 97512, "BSTAR": 4.2056e-05, "MEAN_MOTION_DOT": 6.9e-07, "MEAN_MOTION_DDOT": 0}, "tle": {"line1": "1 31113U 07010A   25354.84529235  .00000069  00000+0  42056-4 0  9999", "line2": "2 31113  98.3321 338.7888 0013866  14.9776 345.1816 14.30967553975125"}}, "geometry": {"type": "Point", "coordinates": [-18.349957636817443, -14.20847853565267]}}, {"type": "Feature", "properties": {"norad_id": 31598, "name": "COSMO-SKYMED 1", "group": "resource", "lat": -35.586794913267575, "lon": -173.2402694424404, "alt_km": 586.6189429260476, "timestamp": "2025-12-21T14:40:47.567269+00:00", "meta": {"OBJECT_NAME": "COSMO-SKYMED 1", "OBJECT_ID": "2007-023A", "EPOCH": "2025-12-21T06:48:47.333088", "MEAN_MOTION": 14.95827479, "ECCENTRICITY": 0.00015399, "INCLINATION": 97.8838, "RA_OF_ASC_NODE": 180.7393, "ARG_OF_PERICENTER": 82.5032, "MEAN_ANOMALY": 277.6364, "EPHEMERIS_TYPE": 0, "CLASSIFICATION_TYPE": "U", "NORAD_CAT_ID": 31598, "ELEMENT_SET_NO": 999, "REV_AT_EPOCH": 318, "BSTAR": 0.00026487183, "MEAN_MOTION_DOT": 2.898e-05, "MEAN_MOTION_DDOT": 0}, "tle": {"line1": "1 31598U 07023A   25355.28388117  .00002898  00000+0  26487-3 0  9992", "line2": "2 31598  97.8838 180.7393 0001539  82.5032 277.6364 14.95827479  3183"}}, "geometry": {"type": "Point", "coordinates": [-173.2402694424404, -35.586794913267575]}}, {"type": "Feature", "properties": {"norad_id": 31698, "name": "TERRASAR-X", "group": "resource", "lat": 4.245542190004483, "lon": 0.3065794613499929, "alt_km": 510.78026980867526, "timestamp": "2025-12-21T14:40:47.567280+00:00", "meta": {"OBJECT_NAME": "TERRASAR-X", "OBJECT_ID": "2007-026A", "EPOCH": "2025-12-20T11:47:12.844032", "MEAN_MOTION": 15.19153914, "ECCENTRICITY": 0.0001874, "INCLINATION": 97.4453, "RA_OF_ASC_NODE": 359.7585, "ARG_OF_PERICENTER": 92.6145, "MEAN_ANOMALY": 267.5304, "EPHEMERIS_TYPE": 0, "CLASSIFICATION_TYPE": "U", "NORAD_CAT_ID": 31698, "ELEMENT_SET_NO": 999, "REV_AT_EPOCH": 2609, "BSTAR": 3.1273e-05, "MEAN_MOTION_DOT": 5.9e-06, "MEAN_MOTION_DDOT": 0}, "tle": {"line1": "1 31698U 07026A   25354.49112088  .00000590  00000+0  31273-4 0  9997", "line2": "2 31698  97.4453 359.7585 0001874  92.6145 267.5304 15.19153914 26093"}}, "geometry": {"type": "Point", "coordinates": [0.3065794613499929, 4.245542190004483]}}, {"type": "Feature", "properties": {"norad_id": 32060, "name": "WORLDVIEW-1 (WV-1)", "group": "resource", "lat": 1.4843690065454067, "lon": -66.84221038672581, "alt_km": 499.3531203952025, "timestamp": "2025-12-21T14:40:47.567290+00:00", "meta": {"OBJECT_NAME": "WORLDVIEW-1 (WV-1)", "OBJECT_ID": "2007-041A", "EPOCH": "2025-12-21T06:01:11.878752", "MEAN_MOTION": 15.23888711, "ECCENTRICITY": 0.00034449, "INCLINATION": 97.3825, "RA_OF_ASC_NODE": 112.6101, "ARG_OF_PERICENTER": 8.3504, "MEAN_ANOMALY": 351.779, "EPHEMERIS_TYPE": 0, "CLASSIFICATION_TYPE": "U", "NORAD_CAT_ID": 32060, "ELEMENT_SET_NO": 999, "REV_AT_EPOCH": 1577, "BSTAR": 0.00023323757, "MEAN_MOTION_DOT": 5.561e-05, "MEAN_MOTION_DDOT": 0}, "tle": {"line1": "1 32060U 07041A   25355.25083193  .00005561  00000+0  23324-3 0  9997", "line2": "2 32060  97.3825 112.6101 0003444   8.3504 351.7790 15.23888711 15770"}}, "geometry": {"type": "Point", "coordinates": [-66.84221038672581, 1.4843690065454067]}}]}